{
 "generated_at": "2026-07-15T07:14:44Z",
 "sources": [
  {
   "name": "CelesTrak",
   "url": "https://celestrak.org/NORAD/elements/",
   "license": "frei verfügbar; Attribution. Ursprünglich USSPACECOM/Space-Track."
  },
  {
   "name": "GCAT (J. McDowell, planet4589.org)",
   "url": "https://planet4589.org/space/gcat/",
   "license": "CC-BY 4.0"
  }
 ],
 "satellites": [
  {
   "norad": 41790,
   "name": "SCATSAT 1",
   "intl": "2016-059H",
   "group": "resource",
   "gcat": {
    "class": null,
    "category": null,
    "owner": null,
    "state": null
   },
   "omm": {
    "OBJECT_NAME": "SCATSAT 1",
    "OBJECT_ID": "2016-059H",
    "EPOCH": "2026-07-14T17:43:10.507584",
    "MEAN_MOTION": 14.79586568,
    "ECCENTRICITY": 0.00551845,
    "INCLINATION": 98.1179,
    "RA_OF_ASC_NODE": 259.7872,
    "ARG_OF_PERICENTER": 158.0023,
    "MEAN_ANOMALY": 202.3575,
    "EPHEMERIS_TYPE": 0,
    "CLASSIFICATION_TYPE": "U",
    "NORAD_CAT_ID": 41790,
    "ELEMENT_SET_NO": 999,
    "REV_AT_EPOCH": 10566,
    "BSTAR": 0.000093421483,
    "MEAN_MOTION_DOT": 0.00000661,
    "MEAN_MOTION_DDOT": 0
   }
  },
  {
   "norad": 22490,
   "name": "SCD 1",
   "intl": "1993-009B",
   "group": "resource",
   "gcat": {
    "class": "C",
    "category": "COM",
    "owner": "INPE",
    "state": "BR"
   },
   "omm": {
    "OBJECT_NAME": "SCD 1",
    "OBJECT_ID": "1993-009B",
    "EPOCH": "2026-07-14T22:04:56.632224",
    "MEAN_MOTION": 14.46128575,
    "ECCENTRICITY": 0.00420781,
    "INCLINATION": 24.9705,
    "RA_OF_ASC_NODE": 36.3396,
    "ARG_OF_PERICENTER": 71.6561,
    "MEAN_ANOMALY": 59.2236,
    "EPHEMERIS_TYPE": 0,
    "CLASSIFICATION_TYPE": "U",
    "NORAD_CAT_ID": 22490,
    "ELEMENT_SET_NO": 999,
    "REV_AT_EPOCH": 76513,
    "BSTAR": 0.0000296407,
    "MEAN_MOTION_DOT": 0.00000294,
    "MEAN_MOTION_DDOT": 0
   }
  },
  {
   "norad": 25504,
   "name": "SCD 2",
   "intl": "1998-060A",
   "group": "resource",
   "gcat": {
    "class": "C",
    "category": "COM",
    "owner": "INPE",
    "state": "BR"
   },
   "omm": {
    "OBJECT_NAME": "SCD 2",
    "OBJECT_ID": "1998-060A",
    "EPOCH": "2026-07-14T11:56:25.569888",
    "MEAN_MOTION": 14.45534668,
    "ECCENTRICITY": 0.00169494,
    "INCLINATION": 24.9946,
    "RA_OF_ASC_NODE": 263.7395,
    "ARG_OF_PERICENTER": 52.2644,
    "MEAN_ANOMALY": 330.3985,
    "EPHEMERIS_TYPE": 0,
    "CLASSIFICATION_TYPE": "U",
    "NORAD_CAT_ID": 25504,
    "ELEMENT_SET_NO": 999,
    "REV_AT_EPOCH": 46428,
    "BSTAR": 0.000026177223,
    "MEAN_MOTION_DOT": 0.00000275,
    "MEAN_MOTION_DDOT": 0
   }
  },
  {
   "norad": 39634,
   "name": "SENTINEL-1A",
   "intl": "2014-016A",
   "group": "resource",
   "gcat": {
    "class": null,
    "category": null,
    "owner": null,
    "state": null
   },
   "omm": {
    "OBJECT_NAME": "SENTINEL-1A",
    "OBJECT_ID": "2014-016A",
    "EPOCH": "2026-07-14T22:23:47.446656",
    "MEAN_MOTION": 14.59196101,
    "ECCENTRICITY": 0.00014359,
    "INCLINATION": 98.1768,
    "RA_OF_ASC_NODE": 203.0608,
    "ARG_OF_PERICENTER": 86.9078,
    "MEAN_ANOMALY": 273.2286,
    "EPHEMERIS_TYPE": 0,
    "CLASSIFICATION_TYPE": "U",
    "NORAD_CAT_ID": 39634,
    "ELEMENT_SET_NO": 999,
    "REV_AT_EPOCH": 65406,
    "BSTAR": 0.000082784558,
    "MEAN_MOTION_DOT": 0.00000345,
    "MEAN_MOTION_DDOT": 0
   }
  },
  {
   "norad": 62261,
   "name": "SENTINEL-1C",
   "intl": "2024-235A",
   "group": "sar",
   "gcat": {
    "class": "C",
    "category": "IMG-R",
    "owner": "COPERN/ESA",
    "state": "I-EU"
   },
   "omm": {
    "OBJECT_NAME": "SENTINEL-1C",
    "OBJECT_ID": "2024-235A",
    "EPOCH": "2026-07-14T23:20:32.067168",
    "MEAN_MOTION": 14.59197747,
    "ECCENTRICITY": 0.00013755,
    "INCLINATION": 98.1824,
    "RA_OF_ASC_NODE": 202.8861,
    "ARG_OF_PERICENTER": 90.8376,
    "MEAN_ANOMALY": 269.2982,
    "EPHEMERIS_TYPE": 0,
    "CLASSIFICATION_TYPE": "U",
    "NORAD_CAT_ID": 62261,
    "ELEMENT_SET_NO": 999,
    "REV_AT_EPOCH": 8546,
    "BSTAR": 0.000026145602,
    "MEAN_MOTION_DOT": 7.7e-7,
    "MEAN_MOTION_DDOT": 0
   }
  },
  {
   "norad": 66315,
   "name": "SENTINEL-1D",
   "intl": "2025-251A",
   "group": "sar",
   "gcat": {
    "class": "C",
    "category": "IMG-R",
    "owner": "COPERN/ESA",
    "state": "I-EU"
   },
   "omm": {
    "OBJECT_NAME": "SENTINEL-1D",
    "OBJECT_ID": "2025-251A",
    "EPOCH": "2026-07-14T22:31:22.951776",
    "MEAN_MOTION": 14.59197126,
    "ECCENTRICITY": 0.00013249,
    "INCLINATION": 98.1841,
    "RA_OF_ASC_NODE": 202.9078,
    "ARG_OF_PERICENTER": 88.6456,
    "MEAN_ANOMALY": 271.4895,
    "EPHEMERIS_TYPE": 0,
    "CLASSIFICATION_TYPE": "U",
    "NORAD_CAT_ID": 66315,
    "ELEMENT_SET_NO": 999,
    "REV_AT_EPOCH": 3677,
    "BSTAR": -0.000007403035,
    "MEAN_MOTION_DOT": -8.1e-7,
    "MEAN_MOTION_DDOT": 0
   }
  },
  {
   "norad": 40697,
   "name": "SENTINEL-2A",
   "intl": "2015-028A",
   "group": "resource",
   "gcat": {
    "class": "C",
    "category": "IMG",
    "owner": "COPERN/ESA",
    "state": "I-EU"
   },
   "omm": {
    "OBJECT_NAME": "SENTINEL-2A",
    "OBJECT_ID": "2015-028A",
    "EPOCH": "2026-07-14T23:26:47.182272",
    "MEAN_MOTION": 14.3081344,
    "ECCENTRICITY": 0.00012799,
    "INCLINATION": 98.5684,
    "RA_OF_ASC_NODE": 270.4327,
    "ARG_OF_PERICENTER": 94.3772,
    "MEAN_ANOMALY": 265.7557,
    "EPHEMERIS_TYPE": 0,
    "CLASSIFICATION_TYPE": "U",
    "NORAD_CAT_ID": 40697,
    "ELEMENT_SET_NO": 999,
    "REV_AT_EPOCH": 57770,
    "BSTAR": -0.000045263602,
    "MEAN_MOTION_DOT": -0.00000162,
    "MEAN_MOTION_DDOT": 0
   }
  },
  {
   "norad": 42063,
   "name": "SENTINEL-2B",
   "intl": "2017-013A",
   "group": "resource",
   "gcat": {
    "class": "C",
    "category": "IMG",
    "owner": "COPERN/ESA",
    "state": "I-EU"
   },
   "omm": {
    "OBJECT_NAME": "SENTINEL-2B",
    "OBJECT_ID": "2017-013A",
    "EPOCH": "2026-07-14T23:16:26.039712",
    "MEAN_MOTION": 14.30814635,
    "ECCENTRICITY": 0.00012144,
    "INCLINATION": 98.5692,
    "RA_OF_ASC_NODE": 270.3507,
    "ARG_OF_PERICENTER": 90.7203,
    "MEAN_ANOMALY": 269.4119,
    "EPHEMERIS_TYPE": 0,
    "CLASSIFICATION_TYPE": "U",
    "NORAD_CAT_ID": 42063,
    "ELEMENT_SET_NO": 999,
    "REV_AT_EPOCH": 48861,
    "BSTAR": 0.000009091424,
    "MEAN_MOTION_DOT": -2e-7,
    "MEAN_MOTION_DDOT": 0
   }
  },
  {
   "norad": 60989,
   "name": "SENTINEL-2C",
   "intl": "2024-157A",
   "group": "resource",
   "gcat": {
    "class": "C",
    "category": "IMG",
    "owner": "COPERN/ESA",
    "state": "I-EU"
   },
   "omm": {
    "OBJECT_NAME": "SENTINEL-2C",
    "OBJECT_ID": "2024-157A",
    "EPOCH": "2026-07-14T19:04:42.425472",
    "MEAN_MOTION": 14.30815595,
    "ECCENTRICITY": 0.00009569,
    "INCLINATION": 98.5685,
    "RA_OF_ASC_NODE": 270.1851,
    "ARG_OF_PERICENTER": 103.6589,
    "MEAN_ANOMALY": 256.4701,
    "EPHEMERIS_TYPE": 0,
    "CLASSIFICATION_TYPE": "U",
    "NORAD_CAT_ID": 60989,
    "ELEMENT_SET_NO": 999,
    "REV_AT_EPOCH": 9693,
    "BSTAR": 0.000033212914,
    "MEAN_MOTION_DOT": 4.3e-7,
    "MEAN_MOTION_DDOT": 0
   }
  },
  {
   "norad": 41335,
   "name": "SENTINEL-3A",
   "intl": "2016-011A",
   "group": "resource",
   "gcat": {
    "class": "C",
    "category": "IMG",
    "owner": "COPERN/ESA",
    "state": "I-EU"
   },
   "omm": {
    "OBJECT_NAME": "SENTINEL-3A",
    "OBJECT_ID": "2016-011A",
    "EPOCH": "2026-07-14T22:01:42.895776",
    "MEAN_MOTION": 14.26739702,
    "ECCENTRICITY": 0.00013637,
    "INCLINATION": 98.6238,
    "RA_OF_ASC_NODE": 262.9014,
    "ARG_OF_PERICENTER": 89.9821,
    "MEAN_ANOMALY": 270.1516,
    "EPHEMERIS_TYPE": 0,
    "CLASSIFICATION_TYPE": "U",
    "NORAD_CAT_ID": 41335,
    "ELEMENT_SET_NO": 999,
    "REV_AT_EPOCH": 54201,
    "BSTAR": 0.000035579318,
    "MEAN_MOTION_DOT": 4.2e-7,
    "MEAN_MOTION_DDOT": 0
   }
  }
 ]
}
